
# Worst residual: 25.74 km
# MJD 59918.000000 (2022 Dec  5  0:00)
2018-103B = NORAD 43846 = Chang'e 4 booster
1 43846U 18103B   22339.49919926  .00000000  00000-0  00000-0 2 14512
2 43846 058.5735 283.3094 7791650 134.0094 053.8101 00.02117473    08

# Worst residual: 29.33 km
# MJD 59919.000000 (2022 Dec  6  0:00)
2018-103B = NORAD 43846 = Chang'e 4 booster
1 43846U 18103B   22340.49919926  .00000000  00000-0  00000-0 2 14514
2 43846 058.6318 282.9799 7771405 134.7969 060.5317 00.02085805    04

# Worst residual: 32.24 km
# MJD 59920.000000 (2022 Dec  7  0:00)
2018-103B = NORAD 43846 = Chang'e 4 booster
1 43846U 18103B   22341.49919926  .00000000  00000-0  00000-0 2 14515
2 43846 058.6986 282.6928 7744501 135.6352 066.9608 00.02052158    07

# Worst residual: 34.48 km
# MJD 59921.000000 (2022 Dec  8  0:00)
2018-103B = NORAD 43846 = Chang'e 4 booster
1 43846U 18103B   22342.49919926  .00000000  00000-0  00000-0 2 14516
2 43846 058.7632 282.4653 7711057 136.4974 073.1129 00.02017590    07

# Worst residual: 34.55 km
# MJD 59922.000000 (2022 Dec  9  0:00)
2018-103B = NORAD 43846 = Chang'e 4 booster
1 43846U 18103B   22343.49919926  .00000000  00000-0  00000-0 2 14517
2 43846 058.8090 282.3256 7670759 137.3579 079.0094 00.01982776    00

# Worst residual: 37.01 km
# MJD 59923.000000 (2022 Dec 10  0:00)
2018-103B = NORAD 43846 = Chang'e 4 booster
1 43846U 18103B   22344.49919926  .00000000  00000-0  00000-0 2 14518
2 43846 058.8463 282.2253 7626186 138.2103 084.6787 00.01948806    05

# Worst residual: 37.41 km
# MJD 59924.000000 (2022 Dec 11  0:00)
2018-103B = NORAD 43846 = Chang'e 4 booster
1 43846U 18103B   22345.49919926  .00000000  00000-0  00000-0 2 14519
2 43846 058.8496 282.2169 7575906 139.0311 090.1472 00.01915697    05

# Worst residual: 37.34 km
# MJD 59925.000000 (2022 Dec 12  0:00)
2018-103B = NORAD 43846 = Chang'e 4 booster
1 43846U 18103B   22346.49919926  .00000000  00000-0  00000-0 2 14510
2 43846 058.8209 282.2787 7521258 139.8147 095.4455 00.01883947    00

# Worst residual: 36.82 km
# MJD 59926.000000 (2022 Dec 13  0:00)
2018-103B = NORAD 43846 = Chang'e 4 booster
1 43846U 18103B   22347.49919926  .00000000  00000-0  00000-0 2 14511
2 43846 058.7583 282.4036 7462919 140.5544 100.6041 00.01853807    03

# Worst residual: 35.86 km
# MJD 59927.000000 (2022 Dec 14  0:00)
2018-103B = NORAD 43846 = Chang'e 4 booster
1 43846U 18103B   22348.49919926  .00000000  00000-0  00000-0 2 14512
2 43846 058.6617 282.5826 7401576 141.2452 105.6541 00.01825461    01

# Worst residual: 34.47 km
# MJD 59928.000000 (2022 Dec 15  0:00)
2018-103B = NORAD 43846 = Chang'e 4 booster
1 43846U 18103B   22349.49919926  .00000000  00000-0  00000-0 2 14513
2 43846 058.5333 282.8052 7337947 141.8835 110.6274 00.01799046    08

# Worst residual: 32.68 km
# MJD 59929.000000 (2022 Dec 16  0:00)
2018-103B = NORAD 43846 = Chang'e 4 booster
1 43846U 18103B   22350.49919926  .00000000  00000-0  00000-0 2 14515
2 43846 058.3774 283.0592 7272808 142.4665 115.5567 00.01774671    05

# Worst residual: 30.52 km
# MJD 59930.000000 (2022 Dec 17  0:00)
2018-103B = NORAD 43846 = Chang'e 4 booster
1 43846U 18103B   22351.49919926  .00000000  00000-0  00000-0 2 14516
2 43846 058.2006 283.3310 7207032 142.9923 120.4749 00.01752422    09

# Worst residual: 28.04 km
# MJD 59931.000000 (2022 Dec 18  0:00)
2018-103B = NORAD 43846 = Chang'e 4 booster
1 43846U 18103B   22352.49919926  .00000000  00000-0  00000-0 2 14517
2 43846 058.0122 283.6052 7141630 143.4604 125.4136 00.01732367    06

# Worst residual: 25.36 km
# MJD 59932.000000 (2022 Dec 19  0:00)
2018-103B = NORAD 43846 = Chang'e 4 booster
1 43846U 18103B   22353.49919926  .00000000  00000-0  00000-0 2 14518
2 43846 057.8237 283.8653 7077760 143.8724 130.3999 00.01714535    07

# Worst residual: 22.72 km
# MJD 59933.000000 (2022 Dec 20  0:00)
2018-103B = NORAD 43846 = Chang'e 4 booster
1 43846U 18103B   22354.49919926  .00000000  00000-0  00000-0 2 14519
2 43846 057.6486 284.0947 7016711 144.2335 135.4498 00.01698901    00

# Worst residual: 20.47 km
# MJD 59934.000000 (2022 Dec 21  0:00)
2018-103B = NORAD 43846 = Chang'e 4 booster
1 43846U 18103B   22355.49919926  .00000000  00000-0  00000-0 2 14510
2 43846 057.5005 284.2789 6959834 144.5542 140.5591 00.01685353    04

# Worst residual: 19.05 km
# MJD 59935.000000 (2022 Dec 22  0:00)
2018-103B = NORAD 43846 = Chang'e 4 booster
1 43846U 18103B   22356.49919926  .00000000  00000-0  00000-0 2 14511
2 43846 057.3921 284.4069 6908470 144.8520 145.6939 00.01673699    03

# Worst residual: 18.93 km
# MJD 59936.000000 (2022 Dec 23  0:00)
2018-103B = NORAD 43846 = Chang'e 4 booster
1 43846U 18103B   22357.49919926  .00000000  00000-0  00000-0 2 14512
2 43846 057.3342 284.4719 6863839 145.1512 150.7905 00.01663715    04

# Worst residual: 20.23 km
# MJD 59937.000000 (2022 Dec 24  0:00)
2018-103B = NORAD 43846 = Chang'e 4 booster
1 43846U 18103B   22358.49919926  .00000000  00000-0  00000-0 2 14513
2 43846 057.3343 284.4721 6826760 145.4792 155.7701 00.01655210    03

# Worst residual: 22.62 km
# MJD 59938.000000 (2022 Dec 25  0:00)
2018-103B = NORAD 43846 = Chang'e 4 booster
1 43846U 18103B   22359.49919926  .00000000  00000-0  00000-0 2 14514
2 43846 057.3936 284.4129 6797297 145.8587 160.5597 00.01648041    02

# Worst residual: 25.77 km
# MJD 59939.000000 (2022 Dec 26  0:00)
2018-103B = NORAD 43846 = Chang'e 4 booster
1 43846U 18103B   22360.49919926  .00000000  00000-0  00000-0 2 14516
2 43846 057.5036 284.3093 6774656 146.3029 165.1068 00.01642098    05

# Worst residual: 29.28 km
# MJD 59940.000000 (2022 Dec 27  0:00)
2018-103B = NORAD 43846 = Chang'e 4 booster
1 43846U 18103B   22361.49919926  .00000000  00000-0  00000-0 2 14517
2 43846 057.6470 284.1820 6757464 146.8144 169.3839 00.01637289    03

# Worst residual: 32.81 km
# MJD 59941.000000 (2022 Dec 28  0:00)
2018-103B = NORAD 43846 = Chang'e 4 booster
1 43846U 18103B   22362.49919926  .00000000  00000-0  00000-0 2 14518
2 43846 057.8008 284.0534 6744180 147.3877 173.3869 00.01633547    04
